sat01428
1 01428U 65048B   20046.75225997  .00000008  00000-0 -23486-5 0  9993
2 01428  89.9307 308.6175 0058392  55.6662   2.6639 13.52510061695921
